OBJECT_NAME,OBJECT_ID,EPOCH,MEAN_MOTION,ECCENTRICITY,INCLINATION,RA_OF_ASC_NODE,ARG_OF_PERICENTER,MEAN_ANOMALY,EPHEMERIS_TYPE,CLASSIFICATION_TYPE,NORAD_CAT_ID,ELEMENT_SET_NO,REV_AT_EPOCH,BSTAR,MEAN_MOTION_DOT,MEAN_MOTION_DDOT
GEOSCAN 3 (RS92S3),2025-155T,2026-07-02T05:53:14.278560,15.35909251,.00083452,97.4546,153.3027,120.4370,239.7699,0,U,64893,999,8316,.56376852E-3,.19671E-3,0
INNOSAT 3 (RS92S0),2025-155U,2026-07-02T06:43:26.922144,15.44936838,.00081229,97.4492,155.1487,118.4830,241.7238,0,U,64894,999,8329,.93090123E-3,.43942E-3,0
KNACKSAT-2,1998-067XZ,2026-07-02T06:29:25.454400,15.61304103,.00083709,51.6255,218.5343,281.3126,78.6927,0,U,67683,999,2263,.55338795E-3,.47788E-3,0
