GEOSCAN 3 (RS92S3)      
1 64893U 25155T   26183.24530415  .00019671  00000+0  56377-3 0  9996
2 64893  97.4546 153.3027 0008345 120.4370 239.7699 15.35909251 83168
INNOSAT 3 (RS92S0)      
1 64894U 25155U   26183.28017271  .00043942  00000+0  93090-3 0  9992
2 64894  97.4492 155.1487 0008122 118.4830 241.7238 15.44936838 83297
KNACKSAT-2              
1 67683U 98067XZ  26183.27043350  .00047788  00000+0  55339-3 0  9995
2 67683  51.6255 218.5343 0008370 281.3126  78.6927 15.61304103 22639
